SES-15                  
1 42709U 17026A   22248.98224051  .00000047  00000+0  00000+0 0  9996
2 42709   0.0333 349.6722 0000516 146.3136  73.5142  1.00268448 20302
QZS-2 (MICHIBIKI-2)     
1 42738U 17028A   22249.36716247 -.00000125  00000+0  00000+0 0  9994
2 42738  41.6421 263.0249 0752235 270.1185  85.2072  1.00265333 19319
VIASAT-2                
1 42740U 17029A   22249.49628662 -.00000280  00000+0  00000+0 0  9997
2 42740   0.0323 262.7803 0000261 221.0578 330.4756  1.00271231 19352
EUTELSAT 172B           
1 42741U 17029B   22249.37549302 -.00000020  00000+0  00000+0 0  9990
2 42741   0.0367 162.2671 0000368 289.6318 200.7383  1.00271191 19886
GSAT-19                 
1 42747U 17031A   22249.03122262  .00000112  00000+0  00000+0 0  9995
2 42747   0.0668 278.2413 0006184 187.1249 298.8763  1.00271955 19298
ECHOSTAR 21             
1 42749U 17032A   22249.40743941  .00000053  00000+0  00000+0 0  9996
2 42749   3.8174 311.5345 0002661 206.7664 344.0914  1.00271273 19276
BULGARIASAT-1           
1 42801U 17038A   22249.29537698 -.00000003  00000+0  00000+0 0  9994
2 42801   0.0416 266.3251 0002640 267.3242 279.9498  1.00273284 18982
HELLAS-SAT 3            
1 42814U 17040A   22249.28174351  .00000138  00000+0  00000+0 0  9991
2 42814   0.0642   1.2179 0002360  95.5781  29.0040  1.00273963 18981
GSAT-17                 
1 42815U 17040B   22249.49779490 -.00000274  00000+0  00000+0 0  9992
2 42815   0.0177 119.8683 0003455 123.1374  15.2612  1.00273489 18955
INTELSAT 35E (IS-35E)   
1 42818U 17041A   22249.43158395 -.00000253  00000+0  00000+0 0  9992
2 42818   0.0270 143.8580 0001829  18.5299 303.9749  1.00267937 18983
COSMOS 2520             
1 42907U 17046A   22248.74584465  .00000125  00000+0  00000+0 0  9997
2 42907   0.0200 130.6074 0000188   3.1505 164.5670  1.00272028 18547
TDRS 13                 
1 42915U 17047A   22249.36443966 -.00000110  00000+0  00000+0 0  9991
2 42915   4.3670 334.2195 0017906 124.9863   5.9692  1.00271524 18514
QZS-3 (MICHIBIKI-3)     
1 42917U 17048A   22249.50811958 -.00000363  00000+0  00000+0 0  9990
2 42917   0.0539 171.8183 0001910 357.6696 126.0453  1.00272670 18425
AMAZONAS 5              
1 42934U 17053A   22249.49803062 -.00000297  00000+0  00000+0 0  9996
2 42934   0.0454 318.0960 0001830 234.7603 270.9857  1.00270381 18246
ASIASAT 9               
1 42942U 17057A   22249.08243826 -.00000373  00000+0  00000+0 0  9995
2 42942   0.0076 146.8006 0002082   3.3239 346.7974  1.00268814 18103
INTELSAT 37E (IS-37E)   
1 42950U 17059A   22249.43489756 -.00000156  00000+0  00000+0 0  9998
2 42950   0.0160 149.6398 0002841  20.2842 314.1345  1.00270531 18236
BSAT-4A                 
1 42951U 17059B   22249.50374109 -.00000366  00000+0  00000+0 0  9995
2 42951   0.0169 352.7380 0001788 116.8639 167.1633  1.00269451 17963
QZS-4 (MICHIBIKI-4)     
1 42965U 17062A   22248.65782247 -.00000324  00000+0  00000+0 0  9999
2 42965  40.7513   1.0918 0747252 269.3267  89.4566  1.00284468 17974
SES-11 (ECHOSTAR 105)   
1 42967U 17063A   22249.50298152 -.00000104  00000+0  00000+0 0  9990
2 42967   0.0513 288.5825 0003097 243.3501 249.7507  1.00270983 17882
KOREASAT 5A             
1 42984U 17067A   22249.50555414 -.00000374  00000+0  00000+0 0  9999
2 42984   0.0162 127.7936 0001626  42.7518 110.1779  1.00270483 17699
ALCOMSAT 1              
1 43039U 17078A   22249.43350236 -.00000201  00000+0  00000+0 0  9999
2 43039   0.0427 240.8816 0002231 291.9114 303.9801  1.00271191 17451
SBIRS GEO-3 (USA 282)   
1 43162U 18009A   22249.51346847 -.00000305  00000+0  00000+0 0  9998
2 43162   3.3941 320.1016 0002415 201.7595 147.5595  1.00270912 17008
AL YAH 3                
1 43174U 18012A   22249.43446156 -.00000170  00000+0  00000+0 0  9990
2 43174   0.0809  98.3008 0002125  61.7744 321.7290  1.00270114 17014
SES-14                  
1 43175U 18012B   22249.44979837 -.00000293  00000+0  00000+0 0  9995
2 43175   0.0351 292.8313 0001141 218.0796 309.0357  1.00270657 17226
GOES 17                 
1 43226U 18022A   22249.48285775  .00000083  00000+0  00000+0 0  9994
2 43226   0.0941 281.3250 0000517 209.0007 251.7453  1.00272023 16589
HISPASAT 30W-6          
1 43228U 18023A   22249.43254316 -.00000231  00000+0  00000+0 0  9995
2 43228   0.0423  45.4370 0003559  89.7739 336.0128  1.00270198 16613
SUPERBIRD-B3            
1 43271U 18033A   22249.51801612 -.00000108  00000+0  00000+0 0  9993
2 43271   0.0270 240.2389 0001530 259.0381 194.8033  1.00271271 16212
HYLAS 4                 
1 43272U 18033B   22249.43184556 -.00000248  00000+0  00000+0 0  9991
2 43272   0.0658 270.9660 0001600 249.6355 306.8727  1.00272139 16241
IRNSS-1I                
1 43286U 18035A   22249.16239642  .00000077  00000+0  00000+0 0  9994
2 43286  29.2471  96.0392 0019705 178.9525 183.7511  1.00271961 16244
USA 283                 
1 43339U 18036A   22247.58866600 -.00000330  00000+0  00000+0 0  9991
2 43339   0.0053 252.2996 0003796  10.4381  66.9335  1.00219762  4889
COSMOS 2526             
1 43432U 18037A   22249.50985616 -.00000360  00000+0  00000+0 0  9992
2 43432   0.0246 124.0557 0000489  67.9631 105.1669  1.00270124 16133
APSTAR 6C               
1 43450U 18041A   22249.07132691 -.00000332  00000+0  00000+0 0  9995
2 43450   0.0431 263.7496 0002011 269.4577 331.5764  1.00267772 16005
BANGABANDHUSAT-1        
1 43463U 18044A   22249.50719791 -.00000378  00000+0  00000+0 0  9992
2 43463   0.0282 241.3835 0002759 292.5172 113.3610  1.00270541 15877
SES-12                  
1 43488U 18049A   22249.31395065 -.00000284  00000+0  00000+0 0  9993
2 43488   0.0213  75.2982 0001374 150.7164 327.3917  1.00271427 15582
FENGYUN 2H              
1 43491U 18050A   22249.49235301 -.00000139  00000+0  00000+0 0  9993
2 43491   1.3475  95.6004 0004453  48.7522  97.3141  1.00266123 15676
BEIDOU IGSO-7           
1 43539U 18057A   22249.36157838 -.00000174  00000+0  00000+0 0  9996
2 43539  55.0897 175.0152 0052590 228.6207 185.6907  1.00286117 15322
TELSTAR 19V             
1 43562U 18059A   22249.46289997 -.00000295  00000+0  00000+0 0  9991
2 43562   0.0134 191.0402 0003455 318.8183 299.3112  1.00269926 15307
TELKOM 4 (MERAH PUTIH)  
1 43587U 18064A   22249.50231200 -.00000359  00000+0  00000+0 0  9994
2 43587   0.0282 130.2696 0001613  51.1535  92.9888  1.00267749 15038
TELSTAR 18V (APSTAR 5C) 
1 43611U 18069A   22249.51228448 -.00000310  00000+0  00000+0 0  9995
2 43611   0.0238 146.9427 0002249  14.3494 146.7238  1.00268355 14797
AZERSPACE 2 (IS-38)     
1 43632U 18074A   22249.44745441  .00000121  00000+0  00000+0 0  9992
2 43632   0.0177 141.0920 0001637  18.4208  32.1874  1.00270460 14619
HORIZONS-3E             
1 43633U 18074B   22249.18799285 -.00000045  00000+0  00000+0 0  9995
2 43633   0.0394 323.5499 0001001 338.5941 279.7724  1.00271538 14489
AEHF-4 (USA 288)        
1 43651U 18079A   22249.49672262 -.00000287  00000+0  00000+0 0  9997
2 43651   2.4113 317.1137 0004329 195.8370 303.7648  1.00265008 14464
BEIDOU-3 G1             
1 43683U 18085A   22249.53184095 -.00000294  00000+0  00000+0 0  9994
2 43683   0.9775 153.4710 0004157  29.5372 133.9845  1.00277054 14228
GSAT-29                 
1 43698U 18089A   22249.36646619  .00000071  00000+0  00000+0 0  9992
2 43698   0.0198 240.9273 0001808 269.0876  22.3524  1.00270129 13950
ES'HAIL 2               
1 43700U 18090A   22249.39632781  .00000129  00000+0  00000+0 0  9990
2 43700   0.0247 249.3281 0002114 305.3396 319.2743  1.00272136 13842
GEO-KOMPSAT-2A          
1 43823U 18100A   22248.74662510 -.00000356  00000+0  00000+0 0  9992
2 43823   0.0277  45.7255 0001783  85.6804 250.4578  1.00271753 13771
GSAT-11                 
1 43824U 18100B   22249.48970972 -.00000093  00000+0  00000+0 0  9997
2 43824   0.0957 274.4104 0006997 206.6735 114.7734  1.00271527 13653
GSAT-7A                 
1 43864U 18105A   22249.48594425  .00000011  00000+0  00000+0 0  9990
2 43864   0.0870 274.3870 0001367 234.1661  74.6735  1.00271094 13621
COSMOS 2533             
1 43867U 18107A   22249.17549578 -.00000052  00000+0  00000+0 0  9996
2 43867   0.0182 124.0561 0000641  32.4296 321.9426  1.00270814 13584
TJS-3                   
1 43874U 18110A   22249.71953050 -.00000232  00000+0  00000+0 0  9992
2 43874   0.0567 117.8646 0003078  99.4374 111.5902  1.00461356 13642
CHINASAT 2D (ZX 2D)     
1 43920U 19001A   22249.50898044 -.00000352  00000+0  00000+0 0  9995
2 43920   0.0423 324.1871 0000865  77.2084 257.4455  1.00273149 40230
HELLAS-SAT 4 & SGS-1    
1 44034U 19007A   22248.80051494  .00000140  00000+0  00000+0 0  9994
2 44034   0.0634 126.5746 0006453  28.4881 157.0034  1.00269111 13511
GSAT-31                 
1 44035U 19007B   22249.44806481  .00000110  00000+0  00000+0 0  9997
2 44035   0.0412 277.0002 0003001 290.9308 346.7557  1.00270322 13141
NUSANTARA SATU          
1 44048U 19009A   22248.89364494 -.00000248  00000+0  00000+0 0  9997
2 44048   0.0198 134.2398 0001927  24.7223 293.7275  1.00269051 12911
CHINASAT 6C (ZX 6C)     
1 44067U 19012A   22249.57314535 -.00000353  00000+0  00000+0 0  9996
2 44067   0.0729 271.8490 0003386 341.4354  68.7017  1.00273053 12896
WGS 10 (USA 291)        
1 44071U 19014A   22249.20743970  .00000033  00000+0  00000+0 0  9996
2 44071   0.0165 139.9227 0000333 282.2858  58.0320  1.00268986 12772
TIANLIAN 2-01           
1 44076U 19017A   22249.67167069 -.00000152  00000+0  00000+0 0  9997
2 44076   0.2212 276.0160 0035244 238.1790 153.3654  1.00270162 12773
ARABSAT-6A              
1 44186U 19021A   22249.39632781  .00000139  00000+0  00000+0 0  9995
2 44186   0.0546 336.8839 0005746 252.9873 288.8065  1.00276234 12328
BEIDOU-3 IGSO-1         
1 44204U 19023A   22249.36333911 -.00000192  00000+0  00000+0 0  9998
2 44204  56.6773  52.1023 0023369 188.4629 354.9456  1.00285575 12523
